{
  "type": "FeatureCollection",
  "features": [
    {
      "type": "Feature",
      "properties": {
        "norad_id": 66654,
        "name": "JACK E",
        "group": "last-30-days",
        "lat": 5.458587288689448,
        "lon": 103.94484733502402,
        "alt_km": 587.7187659458123,
        "timestamp": "2025-12-22T04:03:37.886159+00:00",
        "meta_object_name": "JACK E",
        "meta_object_id": "2025-274E",
        "meta_epoch": "2025-12-21T17:37:26.478336",
        "meta_mean_motion": 14.92125474,
        "meta_eccentricity": 0.0012189,
        "meta_inclination": 97.7406,
        "meta_ra_of_asc_node": 282.7729,
        "meta_arg_of_pericenter": 222.0045,
        "meta_mean_anomaly": 138.024,
        "meta_ephemeris_type": 0,
        "meta_classification_type": "U",
        "meta_norad_cat_id": 66654,
        "meta_element_set_no": 999,
        "meta_rev_at_epoch": 374,
        "meta_bstar": 0.00020602,
        "meta_mean_motion_dot": 2.041e-05,
        "meta_mean_motion_ddot": 0,
        "tle_line1": "1 66654U 25274E   25355.73433424  .00002041  00000+0  20602-3 0  9996",
        "tle_line2": "2 66654  97.7406 282.7729 0012189 222.0045 138.0240 14.92125474  3746"
      },
      "geometry": {
        "type": "Point",
        "coordinates": [
          103.94484733502402,
          5.458587288689448
        ]
      }
    },
    {
      "type": "Feature",
      "properties": {
        "norad_id": 66655,
        "name": "2025-274F",
        "group": "last-30-days",
        "lat": 33.61660263995494,
        "lon": 108.36464309360909,
        "alt_km": 595.2410273716987,
        "timestamp": "2025-12-22T04:03:37.886169+00:00",
        "meta_object_name": "2025-274F",
        "meta_object_id": "2025-274F",
        "meta_epoch": "2025-12-21T19:21:21.589632",
        "meta_mean_motion": 14.91180804,
        "meta_eccentricity": 0.0004816,
        "meta_inclination": 97.7335,
        "meta_ra_of_asc_node": 282.8258,
        "meta_arg_of_pericenter": 351.662,
        "meta_mean_anomaly": 8.4518,
        "meta_ephemeris_type": 0,
        "meta_classification_type": "U",
        "meta_norad_cat_id": 66655,
        "meta_element_set_no": 999,
        "meta_rev_at_epoch": 375,
        "meta_bstar": 1.3955e-05,
        "meta_mean_motion_dot": 8.4e-07,
        "meta_mean_motion_ddot": 0,
        "tle_line1": "1 66655U 25274F   25355.80649988  .00000084  00000+0  13955-4 0  9998",
        "tle_line2": "2 66655  97.7335 282.8258 0004816 351.6620   8.4518 14.91180804  3758"
      },
      "geometry": {
        "type": "Point",
        "coordinates": [
          108.36464309360909,
          33.61660263995494
        ]
      }
    },
    {
      "type": "Feature",
      "properties": {
        "norad_id": 66656,
        "name": "2025-274G",
        "group": "last-30-days",
        "lat": -11.593795421292416,
        "lon": 101.60770990836244,
        "alt_km": 587.4760843654649,
        "timestamp": "2025-12-22T04:03:37.886179+00:00",
        "meta_object_name": "2025-274G",
        "meta_object_id": "2025-274G",
        "meta_epoch": "2025-12-21T17:32:54.746880",
        "meta_mean_motion": 14.92320827,
        "meta_eccentricity": 0.0012759,
        "meta_inclination": 97.7402,
        "meta_ra_of_asc_node": 282.7763,
        "meta_arg_of_pericenter": 223.881,
        "meta_mean_anomaly": 136.1396,
        "meta_ephemeris_type": 0,
        "meta_classification_type": "U",
        "meta_norad_cat_id": 66656,
        "meta_element_set_no": 999,
        "meta_rev_at_epoch": 374,
        "meta_bstar": 0.00021575,
        "meta_mean_motion_dot": 2.151e-05,
        "meta_mean_motion_ddot": 0,
        "tle_line1": "1 66656U 25274G   25355.73118920  .00002151  00000+0  21575-3 0  9991",
        "tle_line2": "2 66656  97.7402 282.7763 0012759 223.8810 136.1396 14.92320827  3744"
      },
      "geometry": {
        "type": "Point",
        "coordinates": [
          101.60770990836244,
          -11.593795421292416
        ]
      }
    },
    {
      "type": "Feature",
      "properties": {
        "norad_id": 66657,
        "name": "SPIRONE",
        "group": "last-30-days",
        "lat": -27.827980656444563,
        "lon": 99.09601626430276,
        "alt_km": 589.5924013448384,
        "timestamp": "2025-12-22T04:03:37.886191+00:00",
        "meta_object_name": "SPIRONE",
        "meta_object_id": "2025-274H",
        "meta_epoch": "2025-12-21T19:05:07.694016",
        "meta_mean_motion": 14.92499903,
        "meta_eccentricity": 0.0010872,
        "meta_inclination": 97.74,
        "meta_ra_of_asc_node": 282.8455,
        "meta_arg_of_pericenter": 241.7051,
        "meta_mean_anomaly": 118.3071,
        "meta_ephemeris_type": 0,
        "meta_classification_type": "U",
        "meta_norad_cat_id": 66657,
        "meta_element_set_no": 999,
        "meta_rev_at_epoch": 375,
        "meta_bstar": 0.00020534,
        "meta_mean_motion_dot": 2.053e-05,
        "meta_mean_motion_ddot": 0,
        "tle_line1": "1 66657U 25274H   25355.79522794  .00002053  00000+0  20534-3 0  9991",
        "tle_line2": "2 66657  97.7400 282.8455 0010872 241.7051 118.3071 14.92499903  3757"
      },
      "geometry": {
        "type": "Point",
        "coordinates": [
          99.09601626430276,
          -27.827980656444563
        ]
      }
    },
    {
      "type": "Feature",
      "properties": {
        "norad_id": 66658,
        "name": "2025-274J",
        "group": "last-30-days",
        "lat": -43.42703852915012,
        "lon": 95.82319968390638,
        "alt_km": 588.8418040766428,
        "timestamp": "2025-12-22T04:03:37.886203+00:00",
        "meta_object_name": "2025-274J",
        "meta_object_id": "2025-274J",
        "meta_epoch": "2025-12-21T19:00:56.741760",
        "meta_mean_motion": 14.92669737,
        "meta_eccentricity": 0.0011392,
        "meta_inclination": 97.74,
        "meta_ra_of_asc_node": 282.8494,
        "meta_arg_of_pericenter": 244.9965,
        "meta_mean_anomaly": 115.0071,
        "meta_ephemeris_type": 0,
        "meta_classification_type": "U",
        "meta_norad_cat_id": 66658,
        "meta_element_set_no": 999,
        "meta_rev_at_epoch": 375,
        "meta_bstar": 0.00019012,
        "meta_mean_motion_dot": 1.905e-05,
        "meta_mean_motion_ddot": 0,
        "tle_line1": "1 66658U 25274J   25355.79232340  .00001905  00000+0  19012-3 0  9991",
        "tle_line2": "2 66658  97.7400 282.8494 0011392 244.9965 115.0071 14.92669737  3756"
      },
      "geometry": {
        "type": "Point",
        "coordinates": [
          95.82319968390638,
          -43.42703852915012
        ]
      }
    },
    {
      "type": "Feature",
      "properties": {
        "norad_id": 66659,
        "name": "JACK K",
        "group": "last-30-days",
        "lat": -59.985947530614396,
        "lon": 89.61011986872319,
        "alt_km": 587.8030135063,
        "timestamp": "2025-12-22T04:03:37.886213+00:00",
        "meta_object_name": "JACK K",
        "meta_object_id": "2025-274K",
        "meta_epoch": "2025-12-21T17:19:56.314848",
        "meta_mean_motion": 14.9285397,
        "meta_eccentricity": 0.0012082,
        "meta_inclination": 97.7401,
        "meta_ra_of_asc_node": 282.7883,
        "meta_arg_of_pericenter": 246.938,
        "meta_mean_anomaly": 113.0566,
        "meta_ephemeris_type": 0,
        "meta_classification_type": "U",
        "meta_norad_cat_id": 66659,
        "meta_element_set_no": 999,
        "meta_rev_at_epoch": 374,
        "meta_bstar": 0.00017376,
        "meta_mean_motion_dot": 1.745e-05,
        "meta_mean_motion_ddot": 0,
        "tle_line1": "1 66659U 25274K   25355.72217957  .00001745  00000+0  17376-3 0  9995",
        "tle_line2": "2 66659  97.7401 282.7883 0012082 246.9380 113.0566 14.92853970  3749"
      },
      "geometry": {
        "type": "Point",
        "coordinates": [
          89.61011986872319,
          -59.985947530614396
        ]
      }
    },
    {
      "type": "Feature",
      "properties": {
        "norad_id": 66660,
        "name": "K-HERO",
        "group": "last-30-days",
        "lat": -72.86555574963609,
        "lon": 77.05440826747821,
        "alt_km": 587.1318729210543,
        "timestamp": "2025-12-22T04:03:37.886223+00:00",
        "meta_object_name": "K-HERO",
        "meta_object_id": "2025-274L",
        "meta_epoch": "2025-12-21T18:52:49.431936",
        "meta_mean_motion": 14.93004773,
        "meta_eccentricity": 0.0012696,
        "meta_inclination": 97.7407,
        "meta_ra_of_asc_node": 282.8586,
        "meta_arg_of_pericenter": 247.4732,
        "meta_mean_anomaly": 112.5144,
        "meta_ephemeris_type": 0,
        "meta_classification_type": "U",
        "meta_norad_cat_id": 66660,
        "meta_element_set_no": 999,
        "meta_rev_at_epoch": 375,
        "meta_bstar": 0.00016091,
        "meta_mean_motion_dot": 1.618e-05,
        "meta_mean_motion_ddot": 0,
        "tle_line1": "1 66660U 25274L   25355.78668324  .00001618  00000+0  16091-3 0  9993",
        "tle_line2": "2 66660  97.7407 282.8586 0012696 247.4732 112.5144 14.93004773  3753"
      },
      "geometry": {
        "type": "Point",
        "coordinates": [
          77.05440826747821,
          -72.86555574963609
        ]
      }
    }
  ]
}